start=new Date('2023-04-04T00:00:00.000Z').valueOf();
sats=[{"OBJECT_TYPE":"PAYLOAD","TLE_LINE2":"2 47756  53.0545 338.6346 0000986  76.8934 283.2165 15.06450945116381","SEMIMAJOR_AXIS":"6925.192","CENTER_NAME":"EARTH","REF_FRAME":"TEME","SITE":"AFETR","MEAN_MOTION_DDOT":"0.0000000000000","PERIAPSIS":"546.375","ELEMENT_SET_NO":"999","BSTAR":"0.00208250000000","TIME_SYSTEM":"UTC","COUNTRY_CODE":"US","ECCENTRICITY":"0.00009860","REV_AT_EPOCH":"11638","INCLINATION":"53.0545","APOAPSIS":"547.740","EPHEMERIS_TYPE":"0","MEAN_MOTION":"15.06450945","DECAY_DATE":null,"CLASSIFICATION_TYPE":"U","PERIOD":"95.589","MEAN_ANOMALY":"283.2165","LAUNCH_DATE":"2021-03-04","OBJECT_NAME":"STARLINK-2174","TLE_LINE1":"1 47756U 21017AL  23093.88753266  .00030917  00000-0  20825-2 0  9991","MEAN_ELEMENT_THEORY":"SGP4","OBJECT_ID":"2021-017AL","RA_OF_ASC_NODE":"338.6346","NORAD_CAT_ID":"47756","GP_ID":"229422193","FILE":"3879321","ARG_OF_PERICENTER":"76.8934","EPOCH":"2023-04-03T21:18:02.821824","MEAN_MOTION_DOT":"0.00030917","RCS_SIZE":"LARGE"},{"RCS_SIZE":"LARGE","EPOCH":"2023-04-03T19:21:18.163872","MEAN_MOTION_DOT":"0.00024293","GP_ID":"229423445","FILE":"3879321","ARG_OF_PERICENTER":"96.0109","NORAD_CAT_ID":"47757","OBJECT_ID":"2021-017AM","RA_OF_ASC_NODE":"339.0001","MEAN_ELEMENT_THEORY":"SGP4","OBJECT_NAME":"STARLINK-2175","TLE_LINE1":"1 47757U 21017AM  23093.80646023  .00024293  00000-0  16419-2 0  9990","LAUNCH_DATE":"2021-03-04","MEAN_ANOMALY":"264.0993","CLASSIFICATION_TYPE":"U","PERIOD":"95.589","DECAY_DATE":null,"APOAPSIS":"547.744","MEAN_MOTION":"15.06451405","EPHEMERIS_TYPE":"0","INCLINATION":"53.0546","REV_AT_EPOCH":"11631","ECCENTRICITY":"0.00009940","COUNTRY_CODE":"US","TIME_SYSTEM":"UTC","BSTAR":"0.00164190000000","ELEMENT_SET_NO":"999","PERIAPSIS":"546.368","SITE":"AFETR","MEAN_MOTION_DDOT":"0.0000000000000","REF_FRAME":"TEME","CENTER_NAME":"EARTH","TLE_LINE2":"2 47757  53.0546 339.0001 0000994  96.0109 264.0993 15.06451405116314","OBJECT_TYPE":"PAYLOAD","SEMIMAJOR_AXIS":"6925.191"},{"PERIAPSIS":"546.051","ELEMENT_SET_NO":"999","REF_FRAME":"TEME","MEAN_MOTION_DDOT":"0.0000000000000","SITE":"AFETR","OBJECT_TYPE":"PAYLOAD","TLE_LINE2":"2 47760  53.0550 348.8535 0001226 102.1975 257.9152 15.06502453116219","SEMIMAJOR_AXIS":"6925.035","CENTER_NAME":"EARTH","REV_AT_EPOCH":"11621","INCLINATION":"53.0550","ECCENTRICITY":"0.00012260","COUNTRY_CODE":"US","BSTAR":"0.00258690000000","TIME_SYSTEM":"UTC","MEAN_ELEMENT_THEORY":"SGP4","RA_OF_ASC_NODE":"348.8535","OBJECT_ID":"2021-017AQ","LAUNCH_DATE":"2021-03-04","MEAN_ANOMALY":"257.9152","TLE_LINE1":"1 47760U 21017AQ  23093.83868173  .00038569  00000-0  25869-2 0  9999","OBJECT_NAME":"STARLINK-2178","CLASSIFICATION_TYPE":"U","PERIOD":"95.586","MEAN_MOTION":"15.06502453","EPHEMERIS_TYPE":"0","APOAPSIS":"547.749","DECAY_DATE":null,"RCS_SIZE":"LARGE","ARG_OF_PERICENTER":"102.1975","FILE":"3879321","GP_ID":"229423189","MEAN_MOTION_DOT":"0.00038569","EPOCH":"2023-04-03T20:07:42.101472","NORAD_CAT_ID":"47760"},{"EPOCH":"2023-04-03T16:04:54.456672","MEAN_MOTION_DOT":"0.00029910","GP_ID":"229421943","FILE":"3879321","ARG_OF_PERICENTER":"100.6294","RCS_SIZE":"LARGE","NORAD_CAT_ID":"47761","OBJECT_NAME":"STARLINK-2179","TLE_LINE1":"1 47761U 21017AR  23093.67007473  .00029910  00000-0  20173-2 0  9993","MEAN_ANOMALY":"259.4811","LAUNCH_DATE":"2021-03-04","OBJECT_ID":"2021-017AR","RA_OF_ASC_NODE":"339.6121","MEAN_ELEMENT_THEORY":"SGP4","DECAY_DATE":null,"APOAPSIS":"547.862","MEAN_MOTION":"15.06419731","EPHEMERIS_TYPE":"0","CLASSIFICATION_TYPE":"U","PERIOD":"95.591","ECCENTRICITY":"0.00010240","INCLINATION":"53.0546","REV_AT_EPOCH":"11630","TIME_SYSTEM":"UTC","BSTAR":"0.00201730000000","COUNTRY_CODE":"US","SITE":"AFETR","MEAN_MOTION_DDOT":"0.0000000000000","REF_FRAME":"TEME","ELEMENT_SET_NO":"999","PERIAPSIS":"546.444","CENTER_NAME":"EARTH","SEMIMAJOR_AXIS":"6925.288","TLE_LINE2":"2 47761  53.0546 339.6121 0001024 100.6294 259.4811 15.06419731116302","OBJECT_TYPE":"PAYLOAD"},{"TLE_LINE1":"1 47762U 21017AS  23093.89538069  .00035930  00000-0  24165-2 0  9992","OBJECT_NAME":"STARLINK-2180","MEAN_ANOMALY":"252.9930","LAUNCH_DATE":"2021-03-04","RA_OF_ASC_NODE":"353.6098","OBJECT_ID":"2021-017AS","MEAN_ELEMENT_THEORY":"SGP4","DECAY_DATE":null,"EPHEMERIS_TYPE":"0","MEAN_MOTION":"15.06434426","APOAPSIS":"547.762","PERIOD":"95.590","CLASSIFICATION_TYPE":"U","MEAN_MOTION_DOT":"0.00035930","EPOCH":"2023-04-03T21:29:20.891616","FILE":"3879321","ARG_OF_PERICENTER":"107.1163","GP_ID":"229422694","RCS_SIZE":"LARGE","NORAD_CAT_ID":"47762","MEAN_MOTION_DDOT":"0.0000000000000","SITE":"AFETR","REF_FRAME":"TEME","ELEMENT_SET_NO":"999","PERIAPSIS":"546.454","CENTER_NAME":"EARTH","OBJECT_TYPE":"PAYLOAD","TLE_LINE2":"2 47762  53.0552 353.6098 0000945 107.1163 252.9930 15.06434426116147","SEMIMAJOR_AXIS":"6925.243","ECCENTRICITY":"0.00009450","INCLINATION":"53.0552","REV_AT_EPOCH":"11614","TIME_SYSTEM":"UTC","BSTAR":"0.00241650000000","COUNTRY_CODE":"US"},{"SEMIMAJOR_AXIS":"6925.384","TLE_LINE2":"2 47763  53.0562 347.1047 0001048  78.1022 282.0085 15.06388319116141","OBJECT_TYPE":"PAYLOAD","CENTER_NAME":"EARTH","PERIAPSIS":"546.524","ELEMENT_SET_NO":"999","REF_FRAME":"TEME","MEAN_MOTION_DDOT":"0.0000000000000","SITE":"AFETR","COUNTRY_CODE":"US","BSTAR":"0.00212210000000","TIME_SYSTEM":"UTC","REV_AT_EPOCH":"11614","INCLINATION":"53.0562","ECCENTRICITY":"0.00010480","PERIOD":"95.593","CLASSIFICATION_TYPE":"U","MEAN_MOTION":"15.06388319","EPHEMERIS_TYPE":"0","APOAPSIS":"547.975","DECAY_DATE":null,"MEAN_ELEMENT_THEORY":"SGP4","RA_OF_ASC_NODE":"347.1047","OBJECT_ID":"2021-017AT","MEAN_ANOMALY":"282.0085","LAUNCH_DATE":"2021-03-04","TLE_LINE1":"1 47763U 21017AT  23093.11487157  .00031459  00000-0  21221-2 0  9991","OBJECT_NAME":"STARLINK-2181","NORAD_CAT_ID":"47763","RCS_SIZE":"LARGE","ARG_OF_PERICENTER":"78.1022","FILE":"3879059","GP_ID":"229391047","MEAN_MOTION_DOT":"0.00031459","EPOCH":"2023-04-03T02:45:24.903648"},{"ELEMENT_SET_NO":"999","PERIAPSIS":"546.297","SITE":"AFETR","MEAN_MOTION_DDOT":"0.0000000000000","REF_FRAME":"TEME","CENTER_NAME":"EARTH","OBJECT_TYPE":"PAYLOAD","TLE_LINE2":"2 47764  53.0559 353.6674 0001243  96.5480 263.5651 15.06418119116173","SEMIMAJOR_AXIS":"6925.293","INCLINATION":"53.0559","REV_AT_EPOCH":"11617","ECCENTRICITY":"0.00012430","COUNTRY_CODE":"US","TIME_SYSTEM":"UTC","BSTAR":"0.00260790000000","OBJECT_ID":"2021-017AU","RA_OF_ASC_NODE":"353.6674","MEAN_ELEMENT_THEORY":"SGP4","OBJECT_NAME":"STARLINK-2182","TLE_LINE1":"1 47764U 21017AU  23093.88062700  .00038797  00000-0  26079-2 0  9997","MEAN_ANOMALY":"263.5651","LAUNCH_DATE":"2021-03-04","CLASSIFICATION_TYPE":"U","PERIOD":"95.591","DECAY_DATE":null,"APOAPSIS":"548.019","EPHEMERIS_TYPE":"0","MEAN_MOTION":"15.06418119","RCS_SIZE":"LARGE","EPOCH":"2023-04-03T21:08:06.172800","MEAN_MOTION_DOT":"0.00038797","GP_ID":"229423690","ARG_OF_PERICENTER":"96.5480","FILE":"3879321","NORAD_CAT_ID":"47764"},{"DECAY_DATE":null,"APOAPSIS":"547.739","EPHEMERIS_TYPE":"0","MEAN_MOTION":"15.06419692","CLASSIFICATION_TYPE":"U","PERIOD":"95.591","OBJECT_NAME":"STARLINK-2184","TLE_LINE1":"1 47766U 21017AW  23093.89811401  .00038751  00000-0  26048-2 0  9996","MEAN_ANOMALY":"255.4123","LAUNCH_DATE":"2021-03-04","OBJECT_ID":"2021-017AW","RA_OF_ASC_NODE":"353.5779","MEAN_ELEMENT_THEORY":"SGP4","NORAD_CAT_ID":"47766","EPOCH":"2023-04-03T21:33:17.050464","MEAN_MOTION_DOT":"0.00038751","GP_ID":"229422444","FILE":"3879321","ARG_OF_PERICENTER":"104.6960","RCS_SIZE":"LARGE","CENTER_NAME":"EARTH","TLE_LINE2":"2 47766  53.0553 353.5779 0000846 104.6960 255.4123 15.06419692116111","OBJECT_TYPE":"PAYLOAD","SEMIMAJOR_AXIS":"6925.288","SITE":"AFETR","MEAN_MOTION_DDOT":"0.0000000000000","REF_FRAME":"TEME","ELEMENT_SET_NO":"999","PERIAPSIS":"546.567","TIME_SYSTEM":"UTC","BSTAR":"0.00260480000000","COUNTRY_CODE":"US","ECCENTRICITY":"0.00008460","INCLINATION":"53.0553","REV_AT_EPOCH":"11611"},{"NORAD_CAT_ID":"47767","RCS_SIZE":"LARGE","MEAN_MOTION_DOT":"0.00039249","EPOCH":"2023-04-03T15:48:58.199616","FILE":"3879321","ARG_OF_PERICENTER":"86.4943","GP_ID":"229422194","CLASSIFICATION_TYPE":"U","PERIOD":"95.591","DECAY_DATE":null,"MEAN_MOTION":"15.06415440","EPHEMERIS_TYPE":"0","APOAPSIS":"547.681","RA_OF_ASC_NODE":"339.6623","OBJECT_ID":"2021-017AX","MEAN_ELEMENT_THEORY":"SGP4","TLE_LINE1":"1 47767U 21017AX  23093.65900694  .00039249  00000-0  26381-2 0  9997","OBJECT_NAME":"STARLINK-2185","MEAN_ANOMALY":"273.6131","LAUNCH_DATE":"2021-03-04","COUNTRY_CODE":"US","TIME_SYSTEM":"UTC","BSTAR":"0.00263810000000","INCLINATION":"53.0542","REV_AT_EPOCH":"11635","ECCENTRICITY":"0.00007430","CENTER_NAME":"EARTH","TLE_LINE2":"2 47767  53.0542 339.6623 0000743  86.4943 273.6131 15.06415440116351","OBJECT_TYPE":"PAYLOAD","SEMIMAJOR_AXIS":"6925.301","ELEMENT_SET_NO":"999","PERIAPSIS":"546.652","MEAN_MOTION_DDOT":"0.0000000000000","SITE":"AFETR","REF_FRAME":"TEME"},{"RCS_SIZE":"LARGE","EPOCH":"2023-04-03T21:34:42.579552","MEAN_MOTION_DOT":"0.00036876","GP_ID":"229423446","FILE":"3879321","ARG_OF_PERICENTER":"86.0543","NORAD_CAT_ID":"47768","OBJECT_ID":"2021-017AY","RA_OF_ASC_NODE":"353.9789","MEAN_ELEMENT_THEORY":"SGP4","OBJECT_NAME":"STARLINK-2189","TLE_LINE1":"1 47768U 21017AY  23093.89910393  .00036876  00000-0  24801-2 0  9999","MEAN_ANOMALY":"274.0534","LAUNCH_DATE":"2021-03-04","CLASSIFICATION_TYPE":"U","PERIOD":"95.591","DECAY_DATE":null,"APOAPSIS":"547.680","EPHEMERIS_TYPE":"0","MEAN_MOTION":"15.06422310","INCLINATION":"53.0556","REV_AT_EPOCH":"11614","ECCENTRICITY":"0.00007720","COUNTRY_CODE":"US","TIME_SYSTEM":"UTC","BSTAR":"0.00248010000000","ELEMENT_SET_NO":"999","PERIAPSIS":"546.611","SITE":"AFETR","MEAN_MOTION_DDOT":"0.0000000000000","REF_FRAME":"TEME","CENTER_NAME":"EARTH","OBJECT_TYPE":"PAYLOAD","TLE_LINE2":"2 47768  53.0556 353.9789 0000772  86.0543 274.0534 15.06422310116146","SEMIMAJOR_AXIS":"6925.280"}];
